CSS (TIANHE)            
1 48274U 21035A   23355.56247269  .00047852  00000+0  49405-3 0  9995
2 48274  41.4706  94.4629 0005914  26.5846 333.5297 15.63929468151139
